[{"OBJECT_NAME":"FENGYUN 1C DEB","OBJECT_ID":"1999-025DER","EPOCH":"2026-03-01T05:27:32.124960","MEAN_MOTION":14.22911389,"ECCENTRICITY":0.0090127,"INCLINATION":98.5848,"RA_OF_ASC_NODE":56.2833,"ARG_OF_PERICENTER":162.0949,"MEAN_ANOMALY":198.344,"EPHEMERIS_TYPE":0,"CLASSIFICATION_TYPE":"U","NORAD_CAT_ID":33656,"ELEMENT_SET_NO":999,"REV_AT_EPOCH":63825,"BSTAR":0.0003528,"MEAN_MOTION_DOT":7.85e-6,"MEAN_MOTION_DDOT":0},{"OBJECT_NAME":"FENGYUN 1C DEB","OBJECT_ID":"1999-025DET","EPOCH":"2026-03-28T16:26:06.939456","MEAN_MOTION":13.62900227,"ECCENTRICITY":0.02793027,"INCLINATION":99.565,"RA_OF_ASC_NODE":244.0433,"ARG_OF_PERICENTER":269.6249,"MEAN_ANOMALY":87.2888,"EPHEMERIS_TYPE":0,"CLASSIFICATION_TYPE":"U","NORAD_CAT_ID":33658,"ELEMENT_SET_NO":999,"REV_AT_EPOCH":59582,"BSTAR":0.0025960594,"MEAN_MOTION_DOT":2.593e-5,"MEAN_MOTION_DDOT":0},{"OBJECT_NAME":"FENGYUN 1C DEB","OBJECT_ID":"1999-025DEW","EPOCH":"2026-03-28T14:41:56.400576","MEAN_MOTION":13.7306257,"ECCENTRICITY":0.022965,"INCLINATION":98.4054,"RA_OF_ASC_NODE":326.7996,"ARG_OF_PERICENTER":229.3213,"MEAN_ANOMALY":159.1382,"EPHEMERIS_TYPE":0,"CLASSIFICATION_TYPE":"U","NORAD_CAT_ID":33661,"ELEMENT_SET_NO":999,"REV_AT_EPOCH":65910,"BSTAR":0.00098407,"MEAN_MOTION_DOT":1.061e-5,"MEAN_MOTION_DDOT":0},{"OBJECT_NAME":"FENGYUN 1C DEB","OBJECT_ID":"1999-025DEY","EPOCH":"2026-03-27T05:31:40.859328","MEAN_MOTION":14.69541542,"ECCENTRICITY":0.007253,"INCLINATION":98.8906,"RA_OF_ASC_NODE":90.9397,"ARG_OF_PERICENTER":51.9372,"MEAN_ANOMALY":308.8345,"EPHEMERIS_TYPE":0,"CLASSIFICATION_TYPE":"U","NORAD_CAT_ID":33663,"ELEMENT_SET_NO":999,"REV_AT_EPOCH":65733,"BSTAR":0.0056671,"MEAN_MOTION_DOT":0.00035125,"MEAN_MOTION_DDOT":0},{"OBJECT_NAME":"FENGYUN 1C DEB","OBJECT_ID":"1999-025DEZ","EPOCH":"2026-03-27T20:40:02.281728","MEAN_MOTION":14.04150638,"ECCENTRICITY":0.01645088,"INCLINATION":98.7139,"RA_OF_ASC_NODE":236.302,"ARG_OF_PERICENTER":104.8016,"MEAN_ANOMALY":257.1441,"EPHEMERIS_TYPE":0,"CLASSIFICATION_TYPE":"U","NORAD_CAT_ID":33664,"ELEMENT_SET_NO":999,"REV_AT_EPOCH":92214,"BSTAR":0.00030379209,"MEAN_MOTION_DOT":5.03e-6,"MEAN_MOTION_DDOT":0},{"OBJECT_NAME":"FENGYUN 1C DEB","OBJECT_ID":"1999-025DFJ","EPOCH":"2026-03-27T15:40:52.862304","MEAN_MOTION":13.95696281,"ECCENTRICITY":0.0104663,"INCLINATION":99.3295,"RA_OF_ASC_NODE":139.8387,"ARG_OF_PERICENTER":299.2482,"MEAN_ANOMALY":213.9936,"EPHEMERIS_TYPE":0,"CLASSIFICATION_TYPE":"U","NORAD_CAT_ID":33673,"ELEMENT_SET_NO":999,"REV_AT_EPOCH":91365,"BSTAR":0.00064091,"MEAN_MOTION_DOT":8.67e-6,"MEAN_MOTION_DDOT":0},{"OBJECT_NAME":"FENGYUN 1C DEB","OBJECT_ID":"1999-025DFK","EPOCH":"2026-03-27T02:14:29.131872","MEAN_MOTION":13.77318192,"ECCENTRICITY":0.02067922,"INCLINATION":98.597,"RA_OF_ASC_NODE":131.2204,"ARG_OF_PERICENTER":319.8363,"MEAN_ANOMALY":38.7661,"EPHEMERIS_TYPE":0,"CLASSIFICATION_TYPE":"U","NORAD_CAT_ID":33674,"ELEMENT_SET_NO":999,"REV_AT_EPOCH":89801,"BSTAR":0.0012247814,"MEAN_MOTION_DOT":1.384e-5,"MEAN_MOTION_DDOT":0},{"OBJECT_NAME":"FENGYUN 1C DEB","OBJECT_ID":"1999-025DFM","EPOCH":"2026-03-28T13:33:07.696224","MEAN_MOTION":14.35688881,"ECCENTRICITY":0.0204806,"INCLINATION":99.0832,"RA_OF_ASC_NODE":122.81,"ARG_OF_PERICENTER":119.9336,"MEAN_ANOMALY":242.2359,"EPHEMERIS_TYPE":0,"CLASSIFICATION_TYPE":"U","NORAD_CAT_ID":33676,"ELEMENT_SET_NO":999,"REV_AT_EPOCH":66829,"BSTAR":0.00013975,"MEAN_MOTION_DOT":4.57e-6,"MEAN_MOTION_DDOT":0},{"OBJECT_NAME":"FENGYUN 1C DEB","OBJECT_ID":"1999-025DFP","EPOCH":"2026-03-28T15:54:02.123712","MEAN_MOTION":14.47879776,"ECCENTRICITY":0.02026356,"INCLINATION":99.0262,"RA_OF_ASC_NODE":165.4387,"ARG_OF_PERICENTER":280.4721,"MEAN_ANOMALY":77.3695,"EPHEMERIS_TYPE":0,"CLASSIFICATION_TYPE":"U","NORAD_CAT_ID":33678,"ELEMENT_SET_NO":999,"REV_AT_EPOCH":96628,"BSTAR":0.00031232957,"MEAN_MOTION_DOT":1.434e-5,"MEAN_MOTION_DDOT":0},{"OBJECT_NAME":"FENGYUN 1C DEB","OBJECT_ID":"1999-025DFQ","EPOCH":"2026-03-28T05:25:57.840096","MEAN_MOTION":15.09462529,"ECCENTRICITY":0.01308495,"INCLINATION":99.3323,"RA_OF_ASC_NODE":181.1056,"ARG_OF_PERICENTER":317.2969,"MEAN_ANOMALY":41.8142,"EPHEMERIS_TYPE":0,"CLASSIFICATION_TYPE":"U","NORAD_CAT_ID":33679,"ELEMENT_SET_NO":999,"REV_AT_EPOCH":95711,"BSTAR":0.0010467271,"MEAN_MOTION_DOT":0.00020462,"MEAN_MOTION_DDOT":0},{"OBJECT_NAME":"FENGYUN 1C DEB","OBJECT_ID":"1999-025DFT","EPOCH":"2026-03-28T15:19:29.009280","MEAN_MOTION":14.27424392,"ECCENTRICITY":0.00310545,"INCLINATION":99.4106,"RA_OF_ASC_NODE":147.249,"ARG_OF_PERICENTER":140.4449,"MEAN_ANOMALY":219.9004,"EPHEMERIS_TYPE":0,"CLASSIFICATION_TYPE":"U","NORAD_CAT_ID":33682,"ELEMENT_SET_NO":999,"REV_AT_EPOCH":93208,"BSTAR":0.0013827936,"MEAN_MOTION_DOT":3.361e-5,"MEAN_MOTION_DDOT":0},{"OBJECT_NAME":"FENGYUN 1C DEB","OBJECT_ID":"1999-025DFV","EPOCH":"2026-03-28T03:35:16.444896","MEAN_MOTION":14.76063192,"ECCENTRICITY":0.02776433,"INCLINATION":99.0461,"RA_OF_ASC_NODE":160.2766,"ARG_OF_PERICENTER":11.917,"MEAN_ANOMALY":348.843,"EPHEMERIS_TYPE":0,"CLASSIFICATION_TYPE":"U","NORAD_CAT_ID":33684,"ELEMENT_SET_NO":999,"REV_AT_EPOCH":94542,"BSTAR":0.0008005442,"MEAN_MOTION_DOT":0.00010387,"MEAN_MOTION_DDOT":0},{"OBJECT_NAME":"FENGYUN 1C DEB","OBJECT_ID":"1999-025DFY","EPOCH":"2026-03-27T19:31:48.192672","MEAN_MOTION":15.2663511,"ECCENTRICITY":0.00987962,"INCLINATION":98.9869,"RA_OF_ASC_NODE":118.1192,"ARG_OF_PERICENTER":342.5913,"MEAN_ANOMALY":17.1941,"EPHEMERIS_TYPE":0,"CLASSIFICATION_TYPE":"U","NORAD_CAT_ID":33687,"ELEMENT_SET_NO":999,"REV_AT_EPOCH":73107,"BSTAR":0.00085224113,"MEAN_MOTION_DOT":0.00025733,"MEAN_MOTION_DDOT":0},{"OBJECT_NAME":"FENGYUN 1C DEB","OBJECT_ID":"1999-025DFZ","EPOCH":"2026-03-27T06:30:30.055680","MEAN_MOTION":14.48025582,"ECCENTRICITY":0.004844,"INCLINATION":99.3448,"RA_OF_ASC_NODE":203.4336,"ARG_OF_PERICENTER":314.4143,"MEAN_ANOMALY":45.3086,"EPHEMERIS_TYPE":0,"CLASSIFICATION_TYPE":"U","NORAD_CAT_ID":33688,"ELEMENT_SET_NO":999,"REV_AT_EPOCH":92993,"BSTAR":0.0020077,"MEAN_MOTION_DOT":7.523e-5,"MEAN_MOTION_DDOT":0}]
