FENGYUN 1C DEB          
1 33656U 99025DER 26060.22745515  .00000785  00000+0  35280-3 0  9993
2 33656  98.5848  56.2833 0090127 162.0949 198.3440 14.22911389638257
FENGYUN 1C DEB          
1 33658U 99025DET 26087.68480254  .00002593  00000+0  25961-2 0  9993
2 33658  99.5650 244.0433 0279302 269.6249  87.2888 13.62900227595824
FENGYUN 1C DEB          
1 33661U 99025DEW 26087.61245834  .00001061  00000+0  98407-3 0  9998
2 33661  98.4054 326.7996 0229650 229.3213 159.1382 13.73062570659103
FENGYUN 1C DEB          
1 33663U 99025DEY 26086.23033402  .00035125  00000+0  56671-2 0  9997
2 33663  98.8906  90.9397 0072530  51.9372 308.8345 14.69541542657330
FENGYUN 1C DEB          
1 33664U 99025DEZ 26086.86113752  .00000503  00000+0  30379-3 0  9994
2 33664  98.7139 236.3020 0164508 104.8016 257.1441 14.04150638922145
FENGYUN 1C DEB          
1 33673U 99025DFJ 26086.65338961  .00000867  00000+0  64091-3 0  9993
2 33673  99.3295 139.8387 0104663 299.2482 213.9936 13.95696281913653
FENGYUN 1C DEB          
1 33674U 99025DFK 26086.09339273  .00001384  00000+0  12248-2 0  9990
2 33674  98.5970 131.2204 0206792 319.8363  38.7661 13.77318192898014
FENGYUN 1C DEB          
1 33676U 99025DFM 26087.56467241  .00000457  00000+0  13975-3 0  9991
2 33676  99.0832 122.8100 0204806 119.9336 242.2359 14.35688881668294
FENGYUN 1C DEB          
1 33678U 99025DFP 26087.66252458  .00001434  00000+0  31233-3 0  9999
2 33678  99.0262 165.4387 0202635 280.4721  77.3695 14.47879776966281
FENGYUN 1C DEB          
1 33679U 99025DFQ 26087.22636389  .00020462  00000+0  10467-2 0  9998
2 33679  99.3323 181.1056 0130849 317.2969  41.8142 15.09462529957119
FENGYUN 1C DEB          
1 33682U 99025DFT 26087.63853020  .00003361  00000+0  13828-2 0  9993
2 33682  99.4106 147.2490 0031054 140.4449 219.9004 14.27424392932084
FENGYUN 1C DEB          
1 33684U 99025DFV 26087.14949589  .00010387  00000+0  80054-3 0  9999
2 33684  99.0461 160.2766 0277643  11.9170 348.8430 14.76063192945424
FENGYUN 1C DEB          
1 33687U 99025DFY 26086.81375223  .00025733  00000+0  85224-3 0  9998
2 33687  98.9869 118.1192 0098796 342.5913  17.1941 15.26635110731078
FENGYUN 1C DEB          
1 33688U 99025DFZ 26086.27118120  .00007523  00000+0  20077-2 0  9991
2 33688  99.3448 203.4336 0048440 314.4143  45.3086 14.48025582929935
